[{"OBJECT_NAME":"TROLL","OBJECT_ID":"2025-009BB","EPOCH":"2026-03-09T05:24:19.835712","MEAN_MOTION":15.28164315,"ECCENTRICITY":0.00018165,"INCLINATION":97.3932,"RA_OF_ASC_NODE":150.7169,"ARG_OF_PERICENTER":59.185,"MEAN_ANOMALY":300.9568,"EPHEMERIS_TYPE":0,"CLASSIFICATION_TYPE":"U","NORAD_CAT_ID":62658,"ELEMENT_SET_NO":999,"REV_AT_EPOCH":11817,"BSTAR":0.00048220305,"MEAN_MOTION_DOT":0.00013174,"MEAN_MOTION_DDOT":0},{"OBJECT_NAME":"STARLINK-36505","OBJECT_ID":"2026-008U","EPOCH":"2026-03-09T10:19:23.686464","MEAN_MOTION":15.27604385,"ECCENTRICITY":0.00031169,"INCLINATION":43.0003,"RA_OF_ASC_NODE":206.5863,"ARG_OF_PERICENTER":298.0886,"MEAN_ANOMALY":61.965,"EPHEMERIS_TYPE":0,"CLASSIFICATION_TYPE":"U","NORAD_CAT_ID":67463,"ELEMENT_SET_NO":999,"REV_AT_EPOCH":953,"BSTAR":0.0013965981,"MEAN_MOTION_DOT":0.00038401,"MEAN_MOTION_DDOT":0}]
