TROLL                   
1 62658U 25009BB  26068.22522958  .00013174  00000+0  48220-3 0  9994
2 62658  97.3932 150.7169 0001816  59.1850 300.9568 15.28164315118170
STARLINK-36505          
1 67463U 26008U   26068.43013526  .00038401  00000+0  13966-2 0  9990
2 67463  43.0003 206.5863 0003116 298.0886  61.9650 15.27604385  9535
